{
    "links": {
        "self": "http://www.neowsapp.com/rest/v1/neo/3838255?api_key=iIulBulltgU6a56xZRHN4H3l9WmuAYTsLGpBGhQ2"
    },
    "id": "3838255",
    "neo_reference_id": "3838255",
    "name": "(2019 CB5)",
    "designation": "2019 CB5",
    "nasa_jpl_url": "http://ssd.jpl.nasa.gov/sbdb.cgi?sstr=3838255",
    "absolute_magnitude_h": 28.3,
    "estimated_diameter": {
        "kilometers": {
            "estimated_diameter_min": 0.0058150704,
            "estimated_diameter_max": 0.0130028927
        },
        "meters": {
            "estimated_diameter_min": 5.8150703965,
            "estimated_diameter_max": 13.0028927004
        },
        "miles": {
            "estimated_diameter_min": 0.0036133161,
            "estimated_diameter_max": 0.0080796204
        },
        "feet": {
            "estimated_diameter_min": 19.0783155595,
            "estimated_diameter_max": 42.6604104873
        }
    },
    "is_potentially_hazardous_asteroid": false,
    "close_approach_data": [
        {
            "close_approach_date": "2019-01-25",
            "close_approach_date_full": "2019-Jan-25 17:04",
            "epoch_date_close_approach": 1548435840000,
            "relative_velocity": {
                "kilometers_per_second": "2.8817355807",
                "kilometers_per_hour": "10374.2480903829",
                "miles_per_hour": "6446.1543203827"
            },
            "miss_distance": {
                "astronomical": "0.0227694579",
                "lunar": "8.8573191231",
                "kilometers": "3406262.402894673",
                "miles": "2116553.3112775674"
            },
            "orbiting_body": "Earth"
        }
    ],
    "orbital_data": {
        "orbit_id": "1",
        "orbit_determination_date": "2019-02-12 21:47:30",
        "first_observation_date": "2019-02-09",
        "last_observation_date": "2019-02-12",
        "data_arc_in_days": 3,
        "observations_used": 13,
        "orbit_uncertainty": "8",
        "minimum_orbit_intersection": ".0142278",
        "jupiter_tisserand_invariant": "5.108",
        "epoch_osculation": "2458524.5",
        "eccentricity": ".2051956647696604",
        "semi_major_axis": "1.254725617027074",
        "inclination": ".7942654091531787",
        "ascending_node_longitude": "307.7141473175921",
        "orbital_period": "513.359465511634",
        "perihelion_distance": ".9972613599376811",
        "perihelion_argument": "161.8122064396239",
        "aphelion_distance": "1.512189874116467",
        "perihelion_time": "2458495.471395915999",
        "mean_anomaly": "20.35668605004719",
        "mean_motion": ".7012630022146569",
        "equinox": "J2000",
        "orbit_class": {
            "orbit_class_type": "APO",
            "orbit_class_description": "Near-Earth asteroid orbits which cross the Earth’s orbit similar to that of 1862 Apollo",
            "orbit_class_range": "a (semi-major axis) > 1.0 AU; q (perihelion) < 1.017 AU"
        }
    },
    "is_sentry_object": false
}